OBJECT_NAME,OBJECT_ID,EPOCH,MEAN_MOTION,ECCENTRICITY,INCLINATION,RA_OF_ASC_NODE,ARG_OF_PERICENTER,MEAN_ANOMALY,EPHEMERIS_TYPE,CLASSIFICATION_TYPE,NORAD_CAT_ID,ELEMENT_SET_NO,REV_AT_EPOCH,BSTAR,MEAN_MOTION_DOT,MEAN_MOTION_DDOT
CUTE-1 (CO-55),2003-031E,2026-07-01T12:11:50.949312,14.24344446,.00103876,98.6736,190.8869,138.3809,221.8162,0,U,27844,999,19371,.14842193E-3,.299E-5,0
CUBESAT XI-IV (CO-57),2003-031J,2026-07-01T12:05:34.996992,14.23628338,.00098783,98.6768,190.5840,155.7692,204.3953,0,U,27848,999,19341,.12754573E-3,.247E-5,0
CUBESAT XI-V,2005-043F,2026-06-30T09:07:31.727712,14.72666866,.00145552,98.2997,337.2799,159.1785,201.0018,0,U,28895,999,10369,.23930319E-3,.1474E-4,0
CUTE-1.7+APD II (CO-65),2008-021C,2026-07-01T15:11:51.852192,15.09589272,.00082463,97.8279,164.3537,351.3576,8.7509,0,U,32785,999,98737,.41133627E-3,.6548E-4,0
CANX-2,2008-021H,2026-07-01T10:38:48.297984,15.05717025,.00101947,97.8634,162.4996,5.4378,354.6957,0,U,32790,999,98695,.32485846E-3,.4639E-4,0
SEEDS II (CO-66),2008-021J,2026-07-01T11:54:06.457248,15.33239854,.00013068,97.7518,181.0814,190.4389,169.6825,0,U,32791,999,98948,.67899152E-3,.21762E-3,0
SWISSCUBE,2009-051B,2026-07-01T06:18:03.020544,14.62508639,.00069911,98.4025,90.3956,157.8924,202.2580,0,U,35932,999,89121,.2322916E-3,.1129E-4,0
BEESAT-1,2009-051C,2026-07-01T06:42:12.363264,14.61743320,.00051872,98.3952,90.0184,168.8281,191.3035,0,U,35933,999,89124,.20030138E-3,.95E-5,0
ITUPSAT1,2009-051E,2026-07-01T06:46:52.054752,14.60461628,.00070704,98.4035,89.1986,185.0409,175.0721,0,U,35935,999,89079,.18802404E-3,.863E-5,0
TISAT 1,2010-035E,2026-07-01T10:07:05.522016,15.32254884,.00032551,98.0709,130.2390,144.3836,215.7622,0,U,36799,999,86988,.89566249E-3,.27882E-3,0
AEROCUBE 4.5A,2012-048K,2026-06-29T19:35:03.540480,16.17962819,.00188678,64.6148,340.0554,267.4936,92.4076,0,U,38767,999,37468,.11805476E-2,.2026816E-1,.7424434E-5
STRAND-1,2013-009E,2026-07-01T11:13:27.781824,14.37172069,.00085526,98.3926,2.3508,180.1835,179.9350,0,U,39090,999,69911,.12420601E-3,.327E-5,0
BRITE-AUSTRIA,2013-009F,2026-07-01T11:40:54.398208,14.36547747,.00098908,98.4000,1.5689,190.8054,169.2922,0,U,39091,999,69910,.77794183E-4,.186E-5,0
NEE-01 PEGASO,2013-018B,2026-06-30T20:44:47.311872,14.93727352,.0013673,98.1239,326.4679,117.3878,242.8734,0,U,39151,999,71274,.2795E-3,.2902E-4,0
POPACS 2,2013-055E,2026-06-30T04:38:01.187520,14.91555130,.04162574,80.9915,129.3032,152.0121,210.4183,0,U,39269,999,66515,.23496664E-3,.14049E-3,0
POPACS 3,2013-055F,2026-07-01T08:12:08.371584,14.56386980,.05506106,80.9995,213.8386,26.9121,335.9524,0,U,39270,999,64061,.28765284E-3,.12177E-3,0
ZACUBE-1 (TSHEPISOSAT),2013-066B,2026-07-01T11:18:38.403648,15.01267556,.00427941,97.8043,144.8809,199.4949,160.4640,0,U,39417,999,68287,.31128627E-3,.4016E-4,0
WNISAT-1,2013-066H,2026-07-01T03:24:42.533280,14.58091867,.01628715,97.7218,330.3090,187.4567,172.4210,0,U,39423,999,66876,.25994583E-3,.1388E-4,0
TRITON-1,2013-066M,2026-07-01T16:18:42.732000,14.81749092,.00894271,97.8242,92.1567,186.1115,173.9015,0,U,39427,999,67623,.10342381E-3,.816E-5,0
GOMX-1,2013-066Q,2026-07-01T11:38:46.706784,14.69506755,.0129434,97.6470,22.0452,32.1219,328.7791,0,U,39430,999,67201,.23147114E-3,.151E-4,0
CUBEBUG-2 (LO-74),2013-066AA,2026-06-30T19:04:32.463552,14.93871723,.00569094,97.8910,130.8314,344.0423,15.9001,0,U,39440,999,67902,.43003152E-3,.4655E-4,0
NEE-02 KRYSAOR,2013-066AB,2026-06-30T19:19:19.470144,14.86680801,.00667657,97.8896,120.9230,26.4051,334.0541,0,U,39441,999,67822,.27637444E-3,.2498E-4,0
FUNCUBE-1 (AO-73),2013-066AE,2026-07-01T04:12:41.370912,15.09659489,.00371678,97.8284,153.9150,153.3577,206.9572,0,U,39444,999,68177,.51100856E-3,.8294E-4,0
UWE-3,2013-066AG,2026-07-01T02:49:51.629952,14.97129431,.00470613,97.8711,138.2876,273.5839,86.0001,0,U,39446,999,67966,.31423206E-3,.3646E-4,0
BRITE-CA1 (TORONTO),2014-033L,2026-07-01T07:20:46.004928,14.72700128,.00775365,97.9757,310.9751,231.0662,128.3617,0,U,40020,999,64429,.16750932E-3,.1066E-4,0
DUCHIFAT-1,2014-033M,2026-07-01T14:10:00.261984,15.67738126,.00000971,98.0446,243.8075,87.5908,272.5362,0,U,40021,999,65800,.12770693E-2,.141762E-2,0
NANOSATC-BR1,2014-033Q,2026-07-01T01:19:43.366656,15.31903939,.00052066,98.0713,215.6747,130.4085,229.7610,0,U,40024,999,65610,.73725935E-3,.22675E-3,0
QB50P1,2014-033R,2026-06-30T23:44:53.517984,15.18468022,.00092669,98.0957,194.1047,167.8824,192.2633,0,U,40025,999,65512,.48958673E-3,.10029E-3,0
QB50P2,2014-033Y,2026-06-29T23:27:33.028704,15.15322126,.00090963,98.0748,178.6550,125.6149,234.5930,0,U,40032,999,65460,.3830701E-3,.7152E-4,0
PERSEUS-M2,2014-033AD,2026-07-01T13:58:01.565184,14.95548896,.00103604,97.9970,133.4169,251.5450,108.4644,0,U,40037,999,65293,.56254742E-4,.563E-5,0
